[{"OBJECT_NAME":"GEESAT-3 02","OBJECT_ID":"2024-159B","EPOCH":"2026-03-09T22:45:04.115520","MEAN_MOTION":14.8381248,"ECCENTRICITY":0.00188552,"INCLINATION":49.9926,"RA_OF_ASC_NODE":183.54,"ARG_OF_PERICENTER":35.4495,"MEAN_ANOMALY":324.7693,"EPHEMERIS_TYPE":0,"CLASSIFICATION_TYPE":"U","NORAD_CAT_ID":61012,"ELEMENT_SET_NO":999,"REV_AT_EPOCH":8205,"BSTAR":0.00041202855,"MEAN_MOTION_DOT":3.232e-5,"MEAN_MOTION_DDOT":0},{"OBJECT_NAME":"KUIPER-00021","OBJECT_ID":"2025-088N","EPOCH":"2026-03-09T12:22:26.635584","MEAN_MOTION":14.79971319,"ECCENTRICITY":0.00034919,"INCLINATION":51.8994,"RA_OF_ASC_NODE":104.8534,"ARG_OF_PERICENTER":82.7512,"MEAN_ANOMALY":277.3847,"EPHEMERIS_TYPE":0,"CLASSIFICATION_TYPE":"U","NORAD_CAT_ID":63736,"ELEMENT_SET_NO":999,"REV_AT_EPOCH":4745,"BSTAR":0.0006549213,"MEAN_MOTION_DOT":4.779e-5,"MEAN_MOTION_DDOT":0}]
